{
  "norad_id": 68569,
  "name": "STARLINK-37256",
  "history": [
    {
      "epoch": "2026-04-09T20:00:01.999008Z",
      "apogee_km": 282.75149910862,
      "perigee_km": 281.40879933133783,
      "latitude_deg": -49.30715169642967,
      "longitude_deg": 30.732640253353296,
      "height_km": 299.4667213834317,
      "semi_major_axis_km": 6660.217149219979,
      "eccentricity": 0.0001008,
      "inclination_deg": 53.1585,
      "raan_deg": 228.8539,
      "arg_perigee_deg": 60.0707,
      "mean_anomaly_deg": 229.0514,
      "mean_motion_rev_day": 15.97240002
    }
  ]
}