STARLINK-37256          
1 68569U 26070AD  26099.83335647 -.01333596  54414-3 -29713-2 0  9991
2 68569  53.1585 228.8539 0001008  60.0707 229.0514 15.97240002  2385
